{"type": "FeatureCollection", "features": [{"type": "Feature", "properties": {"norad_id": 28890, "name": "BEIJING 1", "group": "dmc", "lat": 0.7071448765496372, "lon": 128.2931021231613, "alt_km": 686.907572635103, "timestamp": "2025-12-26T20:30:45.599933+00:00", "meta": {"OBJECT_NAME": "BEIJING 1", "OBJECT_ID": "2005-043A", "EPOCH": "2025-12-26T15:35:10.906656", "MEAN_MOTION": 14.63378963, "ECCENTRICITY": 0.00158632, "INCLINATION": 98.2664, "RA_OF_ASC_NODE": 128.1902, "ARG_OF_PERICENTER": 100.4442, "MEAN_ANOMALY": 259.8548, "EPHEMERIS_TYPE": 0, "CLASSIFICATION_TYPE": "U", "NORAD_CAT_ID": 28890, "ELEMENT_SET_NO": 999, "REV_AT_EPOCH": 7541, "BSTAR": 0.00011630887, "MEAN_MOTION_DOT": 5.53e-06, "MEAN_MOTION_DDOT": 0}, "tle": {"line1": "1 28890U 05043A   25360.64943179  .00000553  00000+0  11631-3 0  9995", "line2": "2 28890  98.2664 128.1902 0015863 100.4442 259.8548 14.63378963 75413"}}, "geometry": {"type": "Point", "coordinates": [128.2931021231613, 0.7071448765496372]}}, {"type": "Feature", "properties": {"norad_id": 33320, "name": "HUANJING 1A (HJ-1A)", "group": "dmc", "lat": -35.11972430734385, "lon": -6.007524658961205, "alt_km": 612.6539767483946, "timestamp": "2025-12-26T20:30:45.599956+00:00", "meta": {"OBJECT_NAME": "HUANJING 1A (HJ-1A)", "OBJECT_ID": "2008-041A", "EPOCH": "2025-12-26T14:11:46.641984", "MEAN_MOTION": 14.83437192, "ECCENTRICITY": 0.001906, "INCLINATION": 97.6553, "RA_OF_ASC_NODE": 348.312, "ARG_OF_PERICENTER": 350.0346, "MEAN_ANOMALY": 10.0488, "EPHEMERIS_TYPE": 0, "CLASSIFICATION_TYPE": "U", "NORAD_CAT_ID": 33320, "ELEMENT_SET_NO": 999, "REV_AT_EPOCH": 93281, "BSTAR": 0.00023594641, "MEAN_MOTION_DOT": 1.892e-05, "MEAN_MOTION_DDOT": 0}, "tle": {"line1": "1 33320U 08041A   25360.59151206  .00001892  00000+0  23595-3 0  9995", "line2": "2 33320  97.6553 348.3120 0019060 350.0346  10.0488 14.83437192932812"}}, "geometry": {"type": "Point", "coordinates": [-6.007524658961205, -35.11972430734385]}}, {"type": "Feature", "properties": {"norad_id": 33321, "name": "HUANJING 1B (HJ-1B)", "group": "dmc", "lat": 22.779347598038925, "lon": 175.45597052245319, "alt_km": 635.3814303683666, "timestamp": "2025-12-26T20:30:45.599968+00:00", "meta": {"OBJECT_NAME": "HUANJING 1B (HJ-1B)", "OBJECT_ID": "2008-041B", "EPOCH": "2025-12-26T14:57:05.472000", "MEAN_MOTION": 14.82859513, "ECCENTRICITY": 0.00376752, "INCLINATION": 97.6412, "RA_OF_ASC_NODE": 352.0026, "ARG_OF_PERICENTER": 31.7378, "MEAN_ANOMALY": 328.6096, "EPHEMERIS_TYPE": 0, "CLASSIFICATION_TYPE": "U", "NORAD_CAT_ID": 33321, "ELEMENT_SET_NO": 999, "REV_AT_EPOCH": 93283, "BSTAR": 0.00022936671, "MEAN_MOTION_DOT": 1.829e-05, "MEAN_MOTION_DDOT": 0}, "tle": {"line1": "1 33321U 08041B   25360.62298000  .00001829  00000+0  22937-3 0  9993", "line2": "2 33321  97.6412 352.0026 0037675  31.7378 328.6096 14.82859513932833"}}, "geometry": {"type": "Point", "coordinates": [175.45597052245319, 22.779347598038925]}}, {"type": "Feature", "properties": {"norad_id": 33446, "name": "YAOGAN-4", "group": "dmc", "lat": 60.59461536670097, "lon": -83.48332160842013, "alt_km": 622.5771729876169, "timestamp": "2025-12-26T20:30:45.599978+00:00", "meta": {"OBJECT_NAME": "YAOGAN-4", "OBJECT_ID": "2008-061A", "EPOCH": "2025-12-26T05:39:31.954464", "MEAN_MOTION": 14.82721305, "ECCENTRICITY": 0.00129545, "INCLINATION": 97.9198, "RA_OF_ASC_NODE": 290.2038, "ARG_OF_PERICENTER": 275.3518, "MEAN_ANOMALY": 84.6217, "EPHEMERIS_TYPE": 0, "CLASSIFICATION_TYPE": "U", "NORAD_CAT_ID": 33446, "ELEMENT_SET_NO": 999, "REV_AT_EPOCH": 92003, "BSTAR": 0.00018765921, "MEAN_MOTION_DOT": 1.463e-05, "MEAN_MOTION_DDOT": 0}, "tle": {"line1": "1 33446U 08061A   25360.23578651  .00001463  00000+0  18766-3 0  9992", "line2": "2 33446  97.9198 290.2038 0012954 275.3518  84.6217 14.82721305920036"}}, "geometry": {"type": "Point", "coordinates": [-83.48332160842013, 60.59461536670097]}}, {"type": "Feature", "properties": {"norad_id": 35681, "name": "DEIMOS-1", "group": "dmc", "lat": 21.233344077441043, "lon": -16.1788691138277, "alt_km": 645.4394385326568, "timestamp": "2025-12-26T20:30:45.599989+00:00", "meta": {"OBJECT_NAME": "DEIMOS-1", "OBJECT_ID": "2009-041A", "EPOCH": "2025-12-26T14:54:44.637408", "MEAN_MOTION": 14.74974416, "ECCENTRICITY": 0.00023944, "INCLINATION": 97.7158, "RA_OF_ASC_NODE": 160.5791, "ARG_OF_PERICENTER": 58.6265, "MEAN_ANOMALY": 301.5179, "EPHEMERIS_TYPE": 0, "CLASSIFICATION_TYPE": "U", "NORAD_CAT_ID": 35681, "ELEMENT_SET_NO": 999, "REV_AT_EPOCH": 88144, "BSTAR": 0.00016841974, "MEAN_MOTION_DOT": 1.085e-05, "MEAN_MOTION_DDOT": 0}, "tle": {"line1": "1 35681U 09041A   25360.62134997  .00001085  00000+0  16842-3 0  9991", "line2": "2 35681  97.7158 160.5791 0002394  58.6265 301.5179 14.74974416881449"}}, "geometry": {"type": "Point", "coordinates": [-16.1788691138277, 21.233344077441043]}}, {"type": "Feature", "properties": {"norad_id": 35683, "name": "UK-DMC 2", "group": "dmc", "lat": -27.67473898215682, "lon": -48.793386894874565, "alt_km": 649.4134528325421, "timestamp": "2025-12-26T20:30:45.599999+00:00", "meta": {"OBJECT_NAME": "UK-DMC 2", "OBJECT_ID": "2009-041C", "EPOCH": "2025-12-26T14:41:29.855040", "MEAN_MOTION": 14.7565229, "ECCENTRICITY": 0.00016, "INCLINATION": 97.8574, "RA_OF_ASC_NODE": 135.1242, "ARG_OF_PERICENTER": 91.1939, "MEAN_ANOMALY": 268.9454, "EPHEMERIS_TYPE": 0, "CLASSIFICATION_TYPE": "U", "NORAD_CAT_ID": 35683, "ELEMENT_SET_NO": 999, "REV_AT_EPOCH": 88111, "BSTAR": 0.00024248425, "MEAN_MOTION_DOT": 1.607e-05, "MEAN_MOTION_DDOT": 0}, "tle": {"line1": "1 35683U 09041C   25360.61215110  .00001607  00000+0  24248-3 0  9998", "line2": "2 35683  97.8574 135.1242 0001600  91.1939 268.9454 14.75652290881112"}}, "geometry": {"type": "Point", "coordinates": [-48.793386894874565, -27.67473898215682]}}, {"type": "Feature", "properties": {"norad_id": 40715, "name": "DMC3-FM1", "group": "dmc", "lat": 34.21684470860174, "lon": -137.72434838575933, "alt_km": 611.937525284905, "timestamp": "2025-12-26T20:30:45.600009+00:00", "meta": {"OBJECT_NAME": "DMC3-FM1", "OBJECT_ID": "2015-032A", "EPOCH": "2025-12-26T15:30:27.113760", "MEAN_MOTION": 14.85462395, "ECCENTRICITY": 0.00041029, "INCLINATION": 97.6678, "RA_OF_ASC_NODE": 227.3314, "ARG_OF_PERICENTER": 261.9754, "MEAN_ANOMALY": 98.0996, "EPHEMERIS_TYPE": 0, "CLASSIFICATION_TYPE": "U", "NORAD_CAT_ID": 40715, "ELEMENT_SET_NO": 999, "REV_AT_EPOCH": 56429, "BSTAR": 8.2509505e-05, "MEAN_MOTION_DOT": 6.6e-06, "MEAN_MOTION_DDOT": 0}, "tle": {"line1": "1 40715U 15032A   25360.64614715  .00000660  00000+0  82510-4 0  9999", "line2": "2 40715  97.6678 227.3314 0004102 261.9754  98.0996 14.85462395564299"}}, "geometry": {"type": "Point", "coordinates": [-137.72434838575933, 34.21684470860174]}}, {"type": "Feature", "properties": {"norad_id": 40716, "name": "DMC3-FM2", "group": "dmc", "lat": -81.11022852756469, "lon": -71.47230858958521, "alt_km": 616.3134753504864, "timestamp": "2025-12-26T20:30:45.600018+00:00", "meta": {"OBJECT_NAME": "DMC3-FM2", "OBJECT_ID": "2015-032B", "EPOCH": "2025-12-26T14:25:49.245888", "MEAN_MOTION": 14.85466669, "ECCENTRICITY": 0.00045523, "INCLINATION": 97.6736, "RA_OF_ASC_NODE": 228.742, "ARG_OF_PERICENTER": 269.5407, "MEAN_ANOMALY": 90.5287, "EPHEMERIS_TYPE": 0, "CLASSIFICATION_TYPE": "U", "NORAD_CAT_ID": 40716, "ELEMENT_SET_NO": 999, "REV_AT_EPOCH": 56428, "BSTAR": 0.00015335581, "MEAN_MOTION_DOT": 1.271e-05, "MEAN_MOTION_DDOT": 0}, "tle": {"line1": "1 40716U 15032B   25360.60126442  .00001271  00000+0  15336-3 0  9991", "line2": "2 40716  97.6736 228.7420 0004552 269.5407  90.5287 14.85466669564283"}}, "geometry": {"type": "Point", "coordinates": [-71.47230858958521, -81.11022852756469]}}, {"type": "Feature", "properties": {"norad_id": 40717, "name": "DMC3-FM3", "group": "dmc", "lat": 21.46416022529715, "lon": 53.669864893802036, "alt_km": 613.050668880479, "timestamp": "2025-12-26T20:30:45.600028+00:00", "meta": {"OBJECT_NAME": "DMC3-FM3", "OBJECT_ID": "2015-032C", "EPOCH": "2025-12-26T14:57:08.261856", "MEAN_MOTION": 14.85451396, "ECCENTRICITY": 0.000387, "INCLINATION": 97.6793, "RA_OF_ASC_NODE": 230.4053, "ARG_OF_PERICENTER": 270.8241, "MEAN_ANOMALY": 89.2531, "EPHEMERIS_TYPE": 0, "CLASSIFICATION_TYPE": "U", "NORAD_CAT_ID": 40717, "ELEMENT_SET_NO": 999, "REV_AT_EPOCH": 56429, "BSTAR": 0.00010085667, "MEAN_MOTION_DOT": 8.18e-06, "MEAN_MOTION_DDOT": 0}, "tle": {"line1": "1 40717U 15032C   25360.62301229  .00000818  00000+0  10086-3 0  9995", "line2": "2 40717  97.6793 230.4053 0003870 270.8241  89.2531 14.85451396564291"}}, "geometry": {"type": "Point", "coordinates": [53.669864893802036, 21.46416022529715]}}]}